[{"OBJECT_NAME":"ONEWEB-0101","OBJECT_ID":"2021-025H","EPOCH":"2026-05-18T01:16:53.498208","MEAN_MOTION":13.13468552,"ECCENTRICITY":0.0001623,"INCLINATION":87.8944,"RA_OF_ASC_NODE":326.2312,"ARG_OF_PERICENTER":88.8371,"MEAN_ANOMALY":271.2944,"EPHEMERIS_TYPE":0,"CLASSIFICATION_TYPE":"U","NORAD_CAT_ID":48049,"ELEMENT_SET_NO":999,"REV_AT_EPOCH":24954,"BSTAR":0.0008154,"MEAN_MOTION_DOT":3.11e-06,"MEAN_MOTION_DDOT":0.0},{"OBJECT_NAME":"ONEWEB-0113","OBJECT_ID":"2021-025J","EPOCH":"2026-05-18T02:05:58.981344","MEAN_MOTION":13.13896022,"ECCENTRICITY":0.0001852,"INCLINATION":87.8945,"RA_OF_ASC_NODE":326.1374,"ARG_OF_PERICENTER":91.3192,"MEAN_ANOMALY":268.815,"EPHEMERIS_TYPE":0,"CLASSIFICATION_TYPE":"U","NORAD_CAT_ID":48050,"ELEMENT_SET_NO":999,"REV_AT_EPOCH":24965,"BSTAR":-0.00089527,"MEAN_MOTION_DOT":-3.16e-06,"MEAN_MOTION_DDOT":0.0},{"OBJECT_NAME":"ONEWEB-0112","OBJECT_ID":"2021-025K","EPOCH":"2026-05-18T00:28:08.281056","MEAN_MOTION":13.13471765,"ECCENTRICITY":0.0001515,"INCLINATION":87.8951,"RA_OF_ASC_NODE":326.2169,"ARG_OF_PERICENTER":88.7762,"MEAN_ANOMALY":271.354,"EPHEMERIS_TYPE":0,"CLASSIFICATION_TYPE":"U","NORAD_CAT_ID":48051,"ELEMENT_SET_NO":999,"REV_AT_EPOCH":24963,"BSTAR":-0.00070334,"MEAN_MOTION_DOT":-2.44e-06,"MEAN_MOTION_DDOT":0.0},{"OBJECT_NAME":"ONEWEB-0156","OBJECT_ID":"2021-025L","EPOCH":"2026-05-18T00:40:19.380576","MEAN_MOTION":13.13471937,"ECCENTRICITY":0.000177,"INCLINATION":87.8949,"RA_OF_ASC_NODE":326.2254,"ARG_OF_PERICENTER":94.4898,"MEAN_ANOMALY":265.6433,"EPHEMERIS_TYPE":0,"CLASSIFICATION_TYPE":"U","NORAD_CAT_ID":48052,"ELEMENT_SET_NO":999,"REV_AT_EPOCH":24961,"BSTAR":-0.00025506,"MEAN_MOTION_DOT":-8e-07,"MEAN_MOTION_DDOT":0.0},{"OBJECT_NAME":"ONEWEB-0161","OBJECT_ID":"2021-025M","EPOCH":"2026-05-18T01:53:26.637792","MEAN_MOTION":13.13469485,"ECCENTRICITY":0.000171,"INCLINATION":87.8942,"RA_OF_ASC_NODE":326.2186,"ARG_OF_PERICENTER":95.4075,"MEAN_ANOMALY":264.7249,"EPHEMERIS_TYPE":0,"CLASSIFICATION_TYPE":"U","NORAD_CAT_ID":48053,"ELEMENT_SET_NO":999,"REV_AT_EPOCH":24955,"BSTAR":-0.0011711,"MEAN_MOTION_DOT":-4.15e-06,"MEAN_MOTION_DDOT":0.0},{"OBJECT_NAME":"ONEWEB-0158","OBJECT_ID":"2021-025N","EPOCH":"2026-05-18T00:54:56.262816","MEAN_MOTION":13.13472349,"ECCENTRICITY":0.0001887,"INCLINATION":87.8948,"RA_OF_ASC_NODE":326.2226,"ARG_OF_PERICENTER":80.2211,"MEAN_ANOMALY":279.9131,"EPHEMERIS_TYPE":0,"CLASSIFICATION_TYPE":"U","NORAD_CAT_ID":48054,"ELEMENT_SET_NO":999,"REV_AT_EPOCH":24967,"BSTAR":0.00031737,"MEAN_MOTION_DOT":1.29e-06,"MEAN_MOTION_DDOT":0.0},{"OBJECT_NAME":"ONEWEB-0157","OBJECT_ID":"2021-025P","EPOCH":"2026-05-18T01:31:30.690624","MEAN_MOTION":13.13468319,"ECCENTRICITY":0.0001483,"INCLINATION":87.8955,"RA_OF_ASC_NODE":326.223,"ARG_OF_PERICENTER":99.5041,"MEAN_ANOMALY":260.6256,"EPHEMERIS_TYPE":0,"CLASSIFICATION_TYPE":"U","NORAD_CAT_ID":48055,"ELEMENT_SET_NO":999,"REV_AT_EPOCH":24961,"BSTAR":0.00014384,"MEAN_MOTION_DOT":6.5e-07,"MEAN_MOTION_DDOT":0.0},{"OBJECT_NAME":"ONEWEB-0162","OBJECT_ID":"2021-025Q","EPOCH":"2026-05-18T00:57:10.633824","MEAN_MOTION":13.13472715,"ECCENTRICITY":0.0001865,"INCLINATION":87.8946,"RA_OF_ASC_NODE":326.2296,"ARG_OF_PERICENTER":94.5882,"MEAN_ANOMALY":265.5461,"EPHEMERIS_TYPE":0,"CLASSIFICATION_TYPE":"U","NORAD_CAT_ID":48056,"ELEMENT_SET_NO":999,"REV_AT_EPOCH":24958,"BSTAR":0.00033456,"MEAN_MOTION_DOT":1.35e-06,"MEAN_MOTION_DDOT":0.0},{"OBJECT_NAME":"ONEWEB-0155","OBJECT_ID":"2021-025R","EPOCH":"2026-05-18T01:07:07.688928","MEAN_MOTION":13.13471767,"ECCENTRICITY":0.0001596,"INCLINATION":87.8944,"RA_OF_ASC_NODE":326.2244,"ARG_OF_PERICENTER":90.1732,"MEAN_ANOMALY":269.958,"EPHEMERIS_TYPE":0,"CLASSIFICATION_TYPE":"U","NORAD_CAT_ID":48057,"ELEMENT_SET_NO":999,"REV_AT_EPOCH":24972,"BSTAR":0.0007576000000000001,"MEAN_MOTION_DOT":2.89e-06,"MEAN_MOTION_DDOT":0.0},{"OBJECT_NAME":"ONEWEB-0149","OBJECT_ID":"2021-025S","EPOCH":"2026-05-18T01:38:49.982784","MEAN_MOTION":13.1347063,"ECCENTRICITY":0.0001885,"INCLINATION":87.8954,"RA_OF_ASC_NODE":326.2223,"ARG_OF_PERICENTER":95.5888,"MEAN_ANOMALY":264.5456,"EPHEMERIS_TYPE":0,"CLASSIFICATION_TYPE":"U","NORAD_CAT_ID":48058,"ELEMENT_SET_NO":999,"REV_AT_EPOCH":24953,"BSTAR":0.00020729,"MEAN_MOTION_DOT":8.8e-07,"MEAN_MOTION_DDOT":0.0},{"OBJECT_NAME":"ONEWEB-0148","OBJECT_ID":"2021-025T","EPOCH":"2026-05-18T00:45:11.096352","MEAN_MOTION":13.13472704,"ECCENTRICITY":0.0002061,"INCLINATION":87.8941,"RA_OF_ASC_NODE":326.2387,"ARG_OF_PERICENTER":106.1139,"MEAN_ANOMALY":254.0217,"EPHEMERIS_TYPE":0,"CLASSIFICATION_TYPE":"U","NORAD_CAT_ID":48059,"ELEMENT_SET_NO":999,"REV_AT_EPOCH":24965,"BSTAR":3.5185e-05,"MEAN_MOTION_DOT":2.6e-07,"MEAN_MOTION_DDOT":0.0},{"OBJECT_NAME":"ONEWEB-0160","OBJECT_ID":"2021-025U","EPOCH":"2026-05-18T01:09:35.579808","MEAN_MOTION":13.13471062,"ECCENTRICITY":0.0002322,"INCLINATION":87.8946,"RA_OF_ASC_NODE":326.2317,"ARG_OF_PERICENTER":76.7084,"MEAN_ANOMALY":283.4304,"EPHEMERIS_TYPE":0,"CLASSIFICATION_TYPE":"U","NORAD_CAT_ID":48060,"ELEMENT_SET_NO":999,"REV_AT_EPOCH":24960,"BSTAR":0.0007743400000000001,"MEAN_MOTION_DOT":2.96e-06,"MEAN_MOTION_DDOT":0.0},{"OBJECT_NAME":"ONEWEB-0163","OBJECT_ID":"2021-025V","EPOCH":"2026-05-18T00:47:38.106816","MEAN_MOTION":13.1346997,"ECCENTRICITY":0.0001571,"INCLINATION":87.8941,"RA_OF_ASC_NODE":326.2274,"ARG_OF_PERICENTER":95.8558,"MEAN_ANOMALY":264.275,"EPHEMERIS_TYPE":0,"CLASSIFICATION_TYPE":"U","NORAD_CAT_ID":48061,"ELEMENT_SET_NO":999,"REV_AT_EPOCH":24972,"BSTAR":0.00022583,"MEAN_MOTION_DOT":9.5e-07,"MEAN_MOTION_DDOT":0.0},{"OBJECT_NAME":"ONEWEB-0159","OBJECT_ID":"2021-025W","EPOCH":"2026-05-18T00:35:26.613312","MEAN_MOTION":13.1346961,"ECCENTRICITY":0.0001548,"INCLINATION":87.8953,"RA_OF_ASC_NODE":326.2215,"ARG_OF_PERICENTER":93.352,"MEAN_ANOMALY":266.7786,"EPHEMERIS_TYPE":0,"CLASSIFICATION_TYPE":"U","NORAD_CAT_ID":48062,"ELEMENT_SET_NO":999,"REV_AT_EPOCH":24964,"BSTAR":-0.00031492,"MEAN_MOTION_DOT":-1.02e-06,"MEAN_MOTION_DDOT":0.0},{"OBJECT_NAME":"ONEWEB-0164","OBJECT_ID":"2021-025X","EPOCH":"2026-05-18T01:58:19.112160","MEAN_MOTION":13.13471352,"ECCENTRICITY":0.0001805,"INCLINATION":87.8953,"RA_OF_ASC_NODE":326.2166,"ARG_OF_PERICENTER":87.3399,"MEAN_ANOMALY":272.7936,"EPHEMERIS_TYPE":0,"CLASSIFICATION_TYPE":"U","NORAD_CAT_ID":48063,"ELEMENT_SET_NO":999,"REV_AT_EPOCH":24963,"BSTAR":-0.0007542600000000001,"MEAN_MOTION_DOT":-2.63e-06,"MEAN_MOTION_DDOT":0.0},{"OBJECT_NAME":"ONEWEB-0167","OBJECT_ID":"2021-025Y","EPOCH":"2026-05-18T00:48:52.164576","MEAN_MOTION":13.13471479,"ECCENTRICITY":0.000117,"INCLINATION":87.894,"RA_OF_ASC_NODE":326.2388,"ARG_OF_PERICENTER":80.0937,"MEAN_ANOMALY":280.0325,"EPHEMERIS_TYPE":0,"CLASSIFICATION_TYPE":"U","NORAD_CAT_ID":48064,"ELEMENT_SET_NO":999,"REV_AT_EPOCH":24961,"BSTAR":0.00028613,"MEAN_MOTION_DOT":1.17e-06,"MEAN_MOTION_DDOT":0.0},{"OBJECT_NAME":"ONEWEB-0166","OBJECT_ID":"2021-025Z","EPOCH":"2026-05-18T01:21:46.408032","MEAN_MOTION":13.13469479,"ECCENTRICITY":0.0001798,"INCLINATION":87.8956,"RA_OF_ASC_NODE":326.2029,"ARG_OF_PERICENTER":96.7197,"MEAN_ANOMALY":263.4137,"EPHEMERIS_TYPE":0,"CLASSIFICATION_TYPE":"U","NORAD_CAT_ID":48065,"ELEMENT_SET_NO":999,"REV_AT_EPOCH":24969,"BSTAR":0.00059853,"MEAN_MOTION_DOT":2.31e-06,"MEAN_MOTION_DDOT":0.0},{"OBJECT_NAME":"ONEWEB-0151","OBJECT_ID":"2021-025AA","EPOCH":"2026-05-18T01:24:11.388960","MEAN_MOTION":13.13471074,"ECCENTRICITY":0.0001653,"INCLINATION":87.8944,"RA_OF_ASC_NODE":326.2225,"ARG_OF_PERICENTER":87.2472,"MEAN_ANOMALY":272.8846,"EPHEMERIS_TYPE":0,"CLASSIFICATION_TYPE":"U","NORAD_CAT_ID":48066,"ELEMENT_SET_NO":999,"REV_AT_EPOCH":24963,"BSTAR":0.00055841,"MEAN_MOTION_DOT":2.17e-06,"MEAN_MOTION_DDOT":0.0},{"OBJECT_NAME":"ONEWEB-0170","OBJECT_ID":"2021-025AB","EPOCH":"2026-05-18T01:36:23.017248","MEAN_MOTION":13.13471142,"ECCENTRICITY":0.0001778,"INCLINATION":87.8945,"RA_OF_ASC_NODE":326.2225,"ARG_OF_PERICENTER":74.71,"MEAN_ANOMALY":285.4226,"EPHEMERIS_TYPE":0,"CLASSIFICATION_TYPE":"U","NORAD_CAT_ID":48067,"ELEMENT_SET_NO":999,"REV_AT_EPOCH":24959,"BSTAR":-2.9394e-05,"MEAN_MOTION_DOT":2e-08,"MEAN_MOTION_DDOT":0.0},{"OBJECT_NAME":"ONEWEB-0168","OBJECT_ID":"2021-025AC","EPOCH":"2026-05-18T01:14:26.492064","MEAN_MOTION":13.13471649,"ECCENTRICITY":0.0001634,"INCLINATION":87.8954,"RA_OF_ASC_NODE":326.2227,"ARG_OF_PERICENTER":95.5053,"MEAN_ANOMALY":264.6262,"EPHEMERIS_TYPE":0,"CLASSIFICATION_TYPE":"U","NORAD_CAT_ID":48068,"ELEMENT_SET_NO":999,"REV_AT_EPOCH":24960,"BSTAR":0.0007400099999999999,"MEAN_MOTION_DOT":2.83e-06,"MEAN_MOTION_DDOT":0.0},{"OBJECT_NAME":"ONEWEB-0173","OBJECT_ID":"2021-025AD","EPOCH":"2026-05-18T01:02:15.527328","MEAN_MOTION":13.13471831,"ECCENTRICITY":0.0001417,"INCLINATION":87.8942,"RA_OF_ASC_NODE":326.2278,"ARG_OF_PERICENTER":94.1785,"MEAN_ANOMALY":265.9506,"EPHEMERIS_TYPE":0,"CLASSIFICATION_TYPE":"U","NORAD_CAT_ID":48069,"ELEMENT_SET_NO":999,"REV_AT_EPOCH":24984,"BSTAR":0.00083882,"MEAN_MOTION_DOT":3.19e-06,"MEAN_MOTION_DDOT":0.0},{"OBJECT_NAME":"ONEWEB-0171","OBJECT_ID":"2021-025AE","EPOCH":"2026-05-18T01:55:52.594176","MEAN_MOTION":13.13468066,"ECCENTRICITY":0.0001736,"INCLINATION":87.8943,"RA_OF_ASC_NODE":326.2293,"ARG_OF_PERICENTER":87.2612,"MEAN_ANOMALY":272.8716,"EPHEMERIS_TYPE":0,"CLASSIFICATION_TYPE":"U","NORAD_CAT_ID":48070,"ELEMENT_SET_NO":999,"REV_AT_EPOCH":24966,"BSTAR":-0.000631,"MEAN_MOTION_DOT":-2.18e-06,"MEAN_MOTION_DDOT":0.0},{"OBJECT_NAME":"ONEWEB-0172","OBJECT_ID":"2021-025AF","EPOCH":"2026-05-18T01:26:38.446080","MEAN_MOTION":13.13468617,"ECCENTRICITY":0.00016,"INCLINATION":87.8951,"RA_OF_ASC_NODE":326.2216,"ARG_OF_PERICENTER":88.8247,"MEAN_ANOMALY":271.3066,"EPHEMERIS_TYPE":0,"CLASSIFICATION_TYPE":"U","NORAD_CAT_ID":48071,"ELEMENT_SET_NO":999,"REV_AT_EPOCH":25055,"BSTAR":0.00035988,"MEAN_MOTION_DOT":1.44e-06,"MEAN_MOTION_DDOT":0.0}]